{"type": "FeatureCollection", "features": [ {"type": "Feature", "properties": {"norad_id": 35038, "name": "COSMOS 2251 DEB", "group": "cosmos-2251-debris", "lat": 72.91514519438006, "lon": 161.5141831363278, "alt_km": 761.4873603713359, "timestamp": "2025-12-08T21:31:05.062358+00:00", "meta": {"OBJECT_NAME": "COSMOS 2251 DEB", "OBJECT_ID": "1993-036AHB", "EPOCH": "2025-12-07T04:47:00.892896", "MEAN_MOTION": 14.25090791, "ECCENTRICITY": 0.01137219, "INCLINATION": 74.1064, "RA_OF_ASC_NODE": 52.5358, "ARG_OF_PERICENTER": 37.9776, "MEAN_ANOMALY": 353.0868, "EPHEMERIS_TYPE": 0, "CLASSIFICATION_TYPE": "U", "NORAD_CAT_ID": 35038, "ELEMENT_SET_NO": 999, "REV_AT_EPOCH": 85490, "BSTAR": 0.0014810434, "MEAN_MOTION_DOT": 3.692e-05, "MEAN_MOTION_DDOT": 0}, "tle": {"line1": "1 35038U 93036AHB 25341.19931589  .00003692  00000+0  14810-2 0  9995", "line2": "2 35038  74.1064  52.5358 0113721  37.9776 353.0868 14.25090791854902"}}, "geometry": {"type": "Point", "coordinates": [161.5141831363278, 72.91514519438006]}}, {"type": "Feature", "properties": {"norad_id": 35043, "name": "COSMOS 2251 DEB", "group": "cosmos-2251-debris", "lat": -55.31437233982829, "lon": 28.57360331269902, "alt_km": 592.8150289434761, "timestamp": "2025-12-08T21:31:05.062368+00:00", "meta": {"OBJECT_NAME": "COSMOS 2251 DEB", "OBJECT_ID": "1993-036AHG", "EPOCH": "2025-12-07T23:01:03.149472", "MEAN_MOTION": 14.76553805, "ECCENTRICITY": 0.00972573, "INCLINATION": 73.9525, "RA_OF_ASC_NODE": 54.9959, "ARG_OF_PERICENTER": 265.11, "MEAN_ANOMALY": 93.8965, "EPHEMERIS_TYPE": 0, "CLASSIFICATION_TYPE": "U", "NORAD_CAT_ID": 35043, "ELEMENT_SET_NO": 999, "REV_AT_EPOCH": 67348, "BSTAR": 0.0051005631, "MEAN_MOTION_DOT": 0.00038635, "MEAN_MOTION_DDOT": 0}, "tle": {"line1": "1 35043U 93036AHG 25341.95906423  .00038635  00000+0  51006-2 0  9997", "line2": "2 35043  73.9525  54.9959 0097257 265.1100  93.8965 14.76553805673486"}}, "geometry": {"type": "Point", "coordinates": [28.57360331269902, -55.31437233982829]}}, {"type": "Feature", "properties": {"norad_id": 35045, "name": "COSMOS 2251 DEB", "group": "cosmos-2251-debris", "lat": 68.73688906800108, "lon": -169.1818098602775, "alt_km": 1011.8782941482596, "timestamp": "2025-12-08T21:31:05.062378+00:00", "meta": {"OBJECT_NAME": "COSMOS 2251 DEB", "OBJECT_ID": "1993-036AHJ", "EPOCH": "2025-12-06T22:43:41.331360", "MEAN_MOTION": 14.0036659, "ECCENTRICITY": 0.0183364, "INCLINATION": 73.7196, "RA_OF_ASC_NODE": 62.9336, "ARG_OF_PERICENTER": 305.7539, "MEAN_ANOMALY": 52.6659, "EPHEMERIS_TYPE": 0, "CLASSIFICATION_TYPE": "U", "NORAD_CAT_ID": 35045, "ELEMENT_SET_NO": 999, "REV_AT_EPOCH": 84562, "BSTAR": 0.0010227315, "MEAN_MOTION_DOT": 1.724e-05, "MEAN_MOTION_DDOT": 0}, "tle": {"line1": "1 35045U 93036AHJ 25340.94700615  .00001724  00000+0  10227-2 0  9991", "line2": "2 35045  73.7196  62.9336 0183364 305.7539  52.6659 14.00366590845620"}}, "geometry": {"type": "Point", "coordinates": [-169.1818098602775, 68.73688906800108]}}, {"type": "Feature", "properties": {"norad_id": 35060, "name": "COSMOS 2251 DEB", "group": "cosmos-2251-debris", "lat": 18.735954814111516, "lon": 65.88148539271346, "alt_km": 765.9796114784804, "timestamp": "2025-12-08T21:31:05.062388+00:00", "meta": {"OBJECT_NAME": "COSMOS 2251 DEB", "OBJECT_ID": "1993-036AHP", "EPOCH": "2025-11-28T02:37:07.839264", "MEAN_MOTION": 14.41547968, "ECCENTRICITY": 0.00179641, "INCLINATION": 74.0363, "RA_OF_ASC_NODE": 271.4275, "ARG_OF_PERICENTER": 359.5881, "MEAN_ANOMALY": 0.5257, "EPHEMERIS_TYPE": 0, "CLASSIFICATION_TYPE": "U", "NORAD_CAT_ID": 35060, "ELEMENT_SET_NO": 999, "REV_AT_EPOCH": 87031, "BSTAR": 0.0004076845, "MEAN_MOTION_DOT": 1.301e-05, "MEAN_MOTION_DDOT": 0}, "tle": {"line1": "1 35060U 93036AHP 25332.10911851  .00001301  00000+0  40768-3 0  9998", "line2": "2 35060  74.0363 271.4275 0017964 359.5881   0.5257 14.41547968870310"}}, "geometry": {"type": "Point", "coordinates": [65.88148539271346, 18.735954814111516]}}, {"type": "Feature", "properties": {"norad_id": 35061, "name": "COSMOS 2251 DEB", "group": "cosmos-2251-debris", "lat": 40.317153831360876, "lon": -32.805630661120745, "alt_km": 639.3742134628183, "timestamp": "2025-12-08T21:31:05.062399+00:00", "meta": {"OBJECT_NAME": "COSMOS 2251 DEB", "OBJECT_ID": "1993-036AHQ", "EPOCH": "2025-12-07T15:52:57.034272", "MEAN_MOTION": 14.6775941, "ECCENTRICITY": 0.00389324, "INCLINATION": 74.0462, "RA_OF_ASC_NODE": 315.5288, "ARG_OF_PERICENTER": 67.9184, "MEAN_ANOMALY": 292.6113, "EPHEMERIS_TYPE": 0, "CLASSIFICATION_TYPE": "U", "NORAD_CAT_ID": 35061, "ELEMENT_SET_NO": 999, "REV_AT_EPOCH": 88500, "BSTAR": 0.0013491541, "MEAN_MOTION_DOT": 7.757e-05, "MEAN_MOTION_DDOT": 0}, "tle": {"line1": "1 35061U 93036AHQ 25341.66177123  .00007757  00000+0  13492-2 0  9990", "line2": "2 35061  74.0462 315.5288 0038932  67.9184 292.6113 14.67759410885001"}}, "geometry": {"type": "Point", "coordinates": [-32.805630661120745, 40.317153831360876]}}, {"type": "Feature", "properties": {"norad_id": 35062, "name": "COSMOS 2251 DEB", "group": "cosmos-2251-debris", "lat": -2.0660074150108603, "lon": 99.54539767101375, "alt_km": 838.1146262281864, "timestamp": "2025-12-08T21:31:05.062409+00:00", "meta": {"OBJECT_NAME": "COSMOS 2251 DEB", "OBJECT_ID": "1993-036AHR", "EPOCH": "2025-12-08T08:01:44.515200", "MEAN_MOTION": 14.2287727, "ECCENTRICITY": 0.01278726, "INCLINATION": 74.0789, "RA_OF_ASC_NODE": 101.1426, "ARG_OF_PERICENTER": 102.1505, "MEAN_ANOMALY": 259.4, "EPHEMERIS_TYPE": 0, "CLASSIFICATION_TYPE": "U", "NORAD_CAT_ID": 35062, "ELEMENT_SET_NO": 999, "REV_AT_EPOCH": 85436, "BSTAR": 0.0023515819, "MEAN_MOTION_DOT": 5.727e-05, "MEAN_MOTION_DDOT": 0}, "tle": {"line1": "1 35062U 93036AHR 25342.33454300  .00005727  00000+0  23516-2 0  9994", "line2": "2 35062  74.0789 101.1426 0127872 102.1505 259.4000 14.22877270854365"}}, "geometry": {"type": "Point", "coordinates": [99.54539767101375, -2.0660074150108603]}}, {"type": "Feature", "properties": {"norad_id": 35065, "name": "COSMOS 2251 DEB", "group": "cosmos-2251-debris", "lat": 73.94844645217287, "lon": -63.33921328905256, "alt_km": 740.1699922836979, "timestamp": "2025-12-08T21:31:05.062419+00:00", "meta": {"OBJECT_NAME": "COSMOS 2251 DEB", "OBJECT_ID": "1993-036AHU", "EPOCH": "2025-12-06T22:35:45.269952", "MEAN_MOTION": 14.4570153, "ECCENTRICITY": 0.00196371, "INCLINATION": 74.0198, "RA_OF_ASC_NODE": 205.1597, "ARG_OF_PERICENTER": 331.0404, "MEAN_ANOMALY": 28.9662, "EPHEMERIS_TYPE": 0, "CLASSIFICATION_TYPE": "U", "NORAD_CAT_ID": 35065, "ELEMENT_SET_NO": 999, "REV_AT_EPOCH": 68267, "BSTAR": 0.00070588352, "MEAN_MOTION_DOT": 2.479e-05, "MEAN_MOTION_DDOT": 0}, "tle": {"line1": "1 35065U 93036AHU 25340.94149618  .00002479  00000+0  70588-3 0  9998", "line2": "2 35065  74.0198 205.1597 0019637 331.0404  28.9662 14.45701530682672"}}, "geometry": {"type": "Point", "coordinates": [-63.33921328905256, 73.94844645217287]}}, {"type": "Feature", "properties": {"norad_id": 35071, "name": "COSMOS 2251 DEB", "group": "cosmos-2251-debris", "lat": -51.01730160357069, "lon": 22.205420674504193, "alt_km": 605.9316389981714, "timestamp": "2025-12-08T21:31:05.062440+00:00", "meta": {"OBJECT_NAME": "COSMOS 2251 DEB", "OBJECT_ID": "1993-036AJA", "EPOCH": "2025-12-06T06:11:48.969024", "MEAN_MOTION": 15.03269957, "ECCENTRICITY": 0.00683754, "INCLINATION": 73.9314, "RA_OF_ASC_NODE": 186.7627, "ARG_OF_PERICENTER": 85.1943, "MEAN_ANOMALY": 275.7048, "EPHEMERIS_TYPE": 0, "CLASSIFICATION_TYPE": "U", "NORAD_CAT_ID": 35071, "ELEMENT_SET_NO": 999, "REV_AT_EPOCH": 67439, "BSTAR": 0.0011992827, "MEAN_MOTION_DOT": 0.00017109, "MEAN_MOTION_DDOT": 0}, "tle": {"line1": "1 35071U 93036AJA 25340.25820566  .00017109  00000+0  11993-2 0  9997", "line2": "2 35071  73.9314 186.7627 0068375  85.1943 275.7048 15.03269957674390"}}, "geometry": {"type": "Point", "coordinates": [22.205420674504193, -51.01730160357069]}}, {"type": "Feature", "properties": {"norad_id": 35073, "name": "COSMOS 2251 DEB", "group": "cosmos-2251-debris", "lat": 21.062207255612204, "lon": -15.243354866240008, "alt_km": 561.7038530831396, "timestamp": "2025-12-08T21:31:05.062453+00:00", "meta": {"OBJECT_NAME": "COSMOS 2251 DEB", "OBJECT_ID": "1993-036AJC", "EPOCH": "2025-12-06T06:59:58.933248", "MEAN_MOTION": 14.99991639, "ECCENTRICITY": 0.00102924, "INCLINATION": 74.0009, "RA_OF_ASC_NODE": 343.7168, "ARG_OF_PERICENTER": 84.8418, "MEAN_ANOMALY": 275.3943, "EPHEMERIS_TYPE": 0, "CLASSIFICATION_TYPE": "U", "NORAD_CAT_ID": 35073, "ELEMENT_SET_NO": 999, "REV_AT_EPOCH": 67382, "BSTAR": 0.0044204403, "MEAN_MOTION_DOT": 0.00055435, "MEAN_MOTION_DDOT": 0}, "tle": {"line1": "1 35073U 93036AJC 25340.29165432  .00055435  00000+0  44204-2 0  9992", "line2": "2 35073  74.0009 343.7168 0010292  84.8418 275.3943 14.99991639673828"}}, "geometry": {"type": "Point", "coordinates": [-15.243354866240008, 21.062207255612204]}}, {"type": "Feature", "properties": {"norad_id": 35284, "name": "COSMOS 2251 DEB", "group": "cosmos-2251-debris", "lat": -62.799741208571824, "lon": 125.31413688839382, "alt_km": 773.1556341534961, "timestamp": "2025-12-08T21:31:05.062463+00:00", "meta": {"OBJECT_NAME": "COSMOS 2251 DEB", "OBJECT_ID": "1993-036AJN", "EPOCH": "2025-12-07T06:41:11.898816", "MEAN_MOTION": 14.38308297, "ECCENTRICITY": 0.00165721, "INCLINATION": 74.049, "RA_OF_ASC_NODE": 274.4779, "ARG_OF_PERICENTER": 351.9978, "MEAN_ANOMALY": 161.4544, "EPHEMERIS_TYPE": 0, "CLASSIFICATION_TYPE": "U", "NORAD_CAT_ID": 35284, "ELEMENT_SET_NO": 999, "REV_AT_EPOCH": 65447, "BSTAR": 0.00033658929, "MEAN_MOTION_DOT": 1e-05, "MEAN_MOTION_DDOT": 0}, "tle": {"line1": "1 35284U 93036AJN 25341.27860994  .00001000  00000+0  33659-3 0  9992", "line2": "2 35284  74.0490 274.4779 0016572 351.9978 161.4544 14.38308297654477"}}, "geometry": {"type": "Point", "coordinates": [125.31413688839382, -62.799741208571824]}}]}